[{"OBJECT_NAME":"SL-16 R/B","OBJECT_ID":"1993-059B","EPOCH":"2026-03-13T22:09:52.413984","MEAN_MOTION":14.17231457,"ECCENTRICITY":0.00182908,"INCLINATION":70.9929,"RA_OF_ASC_NODE":2.1985,"ARG_OF_PERICENTER":210.3056,"MEAN_ANOMALY":149.7012,"EPHEMERIS_TYPE":0,"CLASSIFICATION_TYPE":"U","NORAD_CAT_ID":22803,"ELEMENT_SET_NO":999,"REV_AT_EPOCH":68013,"BSTAR":3.3446725e-5,"MEAN_MOTION_DOT":2.0e-7,"MEAN_MOTION_DDOT":0},{"OBJECT_NAME":"ARIANE 40 R/B","OBJECT_ID":"1993-061H","EPOCH":"2026-03-13T21:19:17.802336","MEAN_MOTION":14.32863354,"ECCENTRICITY":0.00095738,"INCLINATION":98.4908,"RA_OF_ASC_NODE":141.6931,"ARG_OF_PERICENTER":271.2192,"MEAN_ANOMALY":88.7896,"EPHEMERIS_TYPE":0,"CLASSIFICATION_TYPE":"U","NORAD_CAT_ID":22830,"ELEMENT_SET_NO":999,"REV_AT_EPOCH":69470,"BSTAR":9.5277163e-5,"MEAN_MOTION_DOT":2.17e-6,"MEAN_MOTION_DDOT":0},{"OBJECT_NAME":"COSMOS 2278","OBJECT_ID":"1994-023A","EPOCH":"2026-03-13T06:36:29.130624","MEAN_MOTION":14.14379565,"ECCENTRICITY":0.00083165,"INCLINATION":71.0551,"RA_OF_ASC_NODE":167.5967,"ARG_OF_PERICENTER":6.5779,"MEAN_ANOMALY":353.5451,"EPHEMERIS_TYPE":0,"CLASSIFICATION_TYPE":"U","NORAD_CAT_ID":23087,"ELEMENT_SET_NO":999,"REV_AT_EPOCH":64531,"BSTAR":7.714367e-6,"MEAN_MOTION_DOT":-3.2e-7,"MEAN_MOTION_DDOT":0},{"OBJECT_NAME":"SL-16 R/B","OBJECT_ID":"1994-023B","EPOCH":"2026-03-13T22:57:14.790816","MEAN_MOTION":14.15010486,"ECCENTRICITY":0.00056612,"INCLINATION":70.9984,"RA_OF_ASC_NODE":61.9248,"ARG_OF_PERICENTER":281.3931,"MEAN_ANOMALY":78.6555,"EPHEMERIS_TYPE":0,"CLASSIFICATION_TYPE":"U","NORAD_CAT_ID":23088,"ELEMENT_SET_NO":999,"REV_AT_EPOCH":64669,"BSTAR":-7.1220118e-5,"MEAN_MOTION_DOT":-1.86e-6,"MEAN_MOTION_DDOT":0},{"OBJECT_NAME":"SL-16 R/B","OBJECT_ID":"1994-074B","EPOCH":"2026-03-13T23:40:57.123264","MEAN_MOTION":14.79413417,"ECCENTRICITY":0.00060912,"INCLINATION":97.7103,"RA_OF_ASC_NODE":103.6305,"ARG_OF_PERICENTER":195.0236,"MEAN_ANOMALY":225.7884,"EPHEMERIS_TYPE":0,"CLASSIFICATION_TYPE":"U","NORAD_CAT_ID":23343,"ELEMENT_SET_NO":999,"REV_AT_EPOCH":68788,"BSTAR":7.7823647e-5,"MEAN_MOTION_DOT":5.31e-6,"MEAN_MOTION_DDOT":0},{"OBJECT_NAME":"SL-16 R/B","OBJECT_ID":"1994-077B","EPOCH":"2026-03-13T22:28:24.283488","MEAN_MOTION":14.15562299,"ECCENTRICITY":0.0002856,"INCLINATION":70.9852,"RA_OF_ASC_NODE":343.5559,"ARG_OF_PERICENTER":206.7335,"MEAN_ANOMALY":153.3641,"EPHEMERIS_TYPE":0,"CLASSIFICATION_TYPE":"U","NORAD_CAT_ID":23405,"ELEMENT_SET_NO":999,"REV_AT_EPOCH":61683,"BSTAR":0.00012154018,"MEAN_MOTION_DOT":1.9e-6,"MEAN_MOTION_DDOT":0},{"OBJECT_NAME":"ARIANE 40+ R/B","OBJECT_ID":"1995-021B","EPOCH":"2026-03-13T22:31:43.977216","MEAN_MOTION":14.39775823,"ECCENTRICITY":0.00078004,"INCLINATION":98.449,"RA_OF_ASC_NODE":144.3637,"ARG_OF_PERICENTER":125.2258,"MEAN_ANOMALY":48.0723,"EPHEMERIS_TYPE":0,"CLASSIFICATION_TYPE":"U","NORAD_CAT_ID":23561,"ELEMENT_SET_NO":999,"REV_AT_EPOCH":61985,"BSTAR":0.00011551567,"MEAN_MOTION_DOT":3.19e-6,"MEAN_MOTION_DDOT":0},{"OBJECT_NAME":"SL-16 R/B","OBJECT_ID":"1995-058B","EPOCH":"2026-03-13T17:33:29.157408","MEAN_MOTION":14.15498196,"ECCENTRICITY":0.0010649,"INCLINATION":71.0225,"RA_OF_ASC_NODE":171.7697,"ARG_OF_PERICENTER":118.5576,"MEAN_ANOMALY":241.662,"EPHEMERIS_TYPE":0,"CLASSIFICATION_TYPE":"U","NORAD_CAT_ID":23705,"ELEMENT_SET_NO":999,"REV_AT_EPOCH":56842,"BSTAR":0.00017788717,"MEAN_MOTION_DOT":3.0e-6,"MEAN_MOTION_DDOT":0},{"OBJECT_NAME":"SL-16 R/B","OBJECT_ID":"1996-051B","EPOCH":"2026-03-13T16:58:10.130016","MEAN_MOTION":14.12416894,"ECCENTRICITY":0.00147298,"INCLINATION":70.7603,"RA_OF_ASC_NODE":166.7361,"ARG_OF_PERICENTER":141.8931,"MEAN_ANOMALY":218.3233,"EPHEMERIS_TYPE":0,"CLASSIFICATION_TYPE":"U","NORAD_CAT_ID":24298,"ELEMENT_SET_NO":999,"REV_AT_EPOCH":52221,"BSTAR":7.6164401e-5,"MEAN_MOTION_DOT":9.2e-7,"MEAN_MOTION_DDOT":0},{"OBJECT_NAME":"ORBVIEW 2 (SEASTAR)","OBJECT_ID":"1997-037A","EPOCH":"2026-03-13T22:45:52.080480","MEAN_MOTION":14.35498387,"ECCENTRICITY":0.00029806,"INCLINATION":98.8575,"RA_OF_ASC_NODE":237.3733,"ARG_OF_PERICENTER":63.2058,"MEAN_ANOMALY":296.9431,"EPHEMERIS_TYPE":0,"CLASSIFICATION_TYPE":"U","NORAD_CAT_ID":24883,"ELEMENT_SET_NO":999,"REV_AT_EPOCH":50908,"BSTAR":0.00013194734,"MEAN_MOTION_DOT":3.33e-6,"MEAN_MOTION_DDOT":0},{"OBJECT_NAME":"SL-16 R/B","OBJECT_ID":"1998-043G","EPOCH":"2026-03-13T07:26:17.715264","MEAN_MOTION":14.26050761,"ECCENTRICITY":0.00100368,"INCLINATION":98.8258,"RA_OF_ASC_NODE":25.699,"ARG_OF_PERICENTER":10.3984,"MEAN_ANOMALY":349.7401,"EPHEMERIS_TYPE":0,"CLASSIFICATION_TYPE":"U","NORAD_CAT_ID":25400,"ELEMENT_SET_NO":999,"REV_AT_EPOCH":43950,"BSTAR":5.3558091e-5,"MEAN_MOTION_DOT":8.3e-7,"MEAN_MOTION_DDOT":0},{"OBJECT_NAME":"SL-16 R/B","OBJECT_ID":"1998-045B","EPOCH":"2026-03-13T07:36:05.728608","MEAN_MOTION":14.16192002,"ECCENTRICITY":0.00069726,"INCLINATION":71.0121,"RA_OF_ASC_NODE":173.9471,"ARG_OF_PERICENTER":2.55,"MEAN_ANOMALY":357.5658,"EPHEMERIS_TYPE":0,"CLASSIFICATION_TYPE":"U","NORAD_CAT_ID":25407,"ELEMENT_SET_NO":999,"REV_AT_EPOCH":42761,"BSTAR":0.00017501371,"MEAN_MOTION_DOT":2.99e-6,"MEAN_MOTION_DDOT":0},{"OBJECT_NAME":"ISS (ZARYA)","OBJECT_ID":"1998-067A","EPOCH":"2026-03-13T16:59:24.155808","MEAN_MOTION":15.48633802,"ECCENTRICITY":0.00078842,"INCLINATION":51.6324,"RA_OF_ASC_NODE":52.4887,"ARG_OF_PERICENTER":189.2977,"MEAN_ANOMALY":170.7866,"EPHEMERIS_TYPE":0,"CLASSIFICATION_TYPE":"U","NORAD_CAT_ID":25544,"ELEMENT_SET_NO":999,"REV_AT_EPOCH":55695,"BSTAR":0.00022432227,"MEAN_MOTION_DOT":0.0001178,"MEAN_MOTION_DDOT":0},{"OBJECT_NAME":"CZ-4B R/B","OBJECT_ID":"1999-025C","EPOCH":"2026-03-13T23:16:50.533248","MEAN_MOTION":14.1826625,"ECCENTRICITY":0.00365219,"INCLINATION":98.6618,"RA_OF_ASC_NODE":117.1501,"ARG_OF_PERICENTER":334.1685,"MEAN_ANOMALY":92.7431,"EPHEMERIS_TYPE":0,"CLASSIFICATION_TYPE":"U","NORAD_CAT_ID":25732,"ELEMENT_SET_NO":999,"REV_AT_EPOCH":38877,"BSTAR":5.1794276e-5,"MEAN_MOTION_DOT":6.4e-7,"MEAN_MOTION_DDOT":0},{"OBJECT_NAME":"OKEAN-O","OBJECT_ID":"1999-039A","EPOCH":"2026-03-13T21:50:53.909088","MEAN_MOTION":14.8034297,"ECCENTRICITY":0.0001148,"INCLINATION":97.9432,"RA_OF_ASC_NODE":132.7587,"ARG_OF_PERICENTER":71.7622,"MEAN_ANOMALY":288.3715,"EPHEMERIS_TYPE":0,"CLASSIFICATION_TYPE":"U","NORAD_CAT_ID":25860,"ELEMENT_SET_NO":999,"REV_AT_EPOCH":43501,"BSTAR":0.00010802842,"MEAN_MOTION_DOT":7.72e-6,"MEAN_MOTION_DDOT":0},{"OBJECT_NAME":"SL-16 R/B","OBJECT_ID":"1999-039B","EPOCH":"2026-03-13T21:16:10.780896","MEAN_MOTION":14.8173794,"ECCENTRICITY":0.00136279,"INCLINATION":97.9958,"RA_OF_ASC_NODE":131.9768,"ARG_OF_PERICENTER":241.0979,"MEAN_ANOMALY":118.8866,"EPHEMERIS_TYPE":0,"CLASSIFICATION_TYPE":"U","NORAD_CAT_ID":25861,"ELEMENT_SET_NO":999,"REV_AT_EPOCH":43748,"BSTAR":8.8710428e-5,"MEAN_MOTION_DOT":6.46e-6,"MEAN_MOTION_DDOT":0},{"OBJECT_NAME":"DELTA 2 R/B","OBJECT_ID":"1999-041E","EPOCH":"2026-03-13T21:38:25.063872","MEAN_MOTION":14.11851718,"ECCENTRICITY":0.05024764,"INCLINATION":51.7621,"RA_OF_ASC_NODE":284.4563,"ARG_OF_PERICENTER":0.8549,"MEAN_ANOMALY":359.3133,"EPHEMERIS_TYPE":0,"CLASSIFICATION_TYPE":"U","NORAD_CAT_ID":25876,"ELEMENT_SET_NO":999,"REV_AT_EPOCH":36362,"BSTAR":0.00026070021,"MEAN_MOTION_DOT":1.382e-5,"MEAN_MOTION_DDOT":0}]
